[
  {
    "OBJECT_NAME": "STARLINK-4254",
    "OBJECT_ID": "22076N",
    "EPOCH": "2025-11-11T05:52:27.490368",
    "MEAN_MOTION": 15.08835347,
    "ECCENTRICITY": 0.0001213,
    "INCLINATION": 53.2173,
    "RA_OF_ASC_NODE": 265.7518,
    "ARG_OF_PERICENTER": 96.4638,
    "MEAN_ANOMALY": 263.6492,
    "EPHEMERIS_TYPE": 0,
    "CLASSIFICATION_TYPE": "U",
    "NORAD_CAT_ID": 52998,
    "ELEMENT_SET_NO": 999,
    "REV_AT_EPOCH": 18496,
    "BSTAR": 1.9018e-05,
    "MEAN_MOTION_DOT": 1.5e-07,
    "MEAN_MOTION_DDOT": 0.0,
    "TLE_LINE1": "1 52998U 22076N   25315.24476262  .00000015  00000+0  19018-4 0  9997",
    "TLE_LINE2": "2 52998  53.2173 265.7518 0001213  96.4638 263.6492 15.08835347184967",
    "COMMENT": "Grouped by shell and plane from TLE"
  },
  {
    "OBJECT_NAME": "STARLINK-4217",
    "OBJECT_ID": "22076P",
    "EPOCH": "2025-11-11T04:06:30.040128",
    "MEAN_MOTION": 15.0883506,
    "ECCENTRICITY": 0.000139,
    "INCLINATION": 53.2173,
    "RA_OF_ASC_NODE": 266.1707,
    "ARG_OF_PERICENTER": 91.2035,
    "MEAN_ANOMALY": 268.9117,
    "EPHEMERIS_TYPE": 0,
    "CLASSIFICATION_TYPE": "U",
    "NORAD_CAT_ID": 52999,
    "ELEMENT_SET_NO": 999,
    "REV_AT_EPOCH": 18495,
    "BSTAR": 6.7685e-05,
    "MEAN_MOTION_DOT": 7.89e-06,
    "MEAN_MOTION_DDOT": 0.0,
    "TLE_LINE1": "1 52999U 22076P   25315.17118102  .00000789  00000+0  67685-4 0  9997",
    "TLE_LINE2": "2 52999  53.2173 266.1707 0001390  91.2035 268.9117 15.08835060184956",
    "COMMENT": "Grouped by shell and plane from TLE"
  },
  {
    "OBJECT_NAME": "STARLINK-4194",
    "OBJECT_ID": "22076Q",
    "EPOCH": "2025-11-11T04:27:41.649408",
    "MEAN_MOTION": 15.08841173,
    "ECCENTRICITY": 0.0001301,
    "INCLINATION": 53.2183,
    "RA_OF_ASC_NODE": 266.104,
    "ARG_OF_PERICENTER": 85.7821,
    "MEAN_ANOMALY": 274.332,
    "EPHEMERIS_TYPE": 0,
    "CLASSIFICATION_TYPE": "U",
    "NORAD_CAT_ID": 53000,
    "ELEMENT_SET_NO": 999,
    "REV_AT_EPOCH": 18495,
    "BSTAR": 0.00010717,
    "MEAN_MOTION_DOT": 1.418e-05,
    "MEAN_MOTION_DDOT": 0.0,
    "TLE_LINE1": "1 53000U 22076Q   25315.18589872  .00001418  00000+0  10717-3 0  9991",
    "TLE_LINE2": "2 53000  53.2183 266.1040 0001301  85.7821 274.3320 15.08841173184953",
    "COMMENT": "Grouped by shell and plane from TLE"
  },
  {
    "OBJECT_NAME": "STARLINK-4190",
    "OBJECT_ID": "22076R",
    "EPOCH": "2025-11-11T05:36:36.168480",
    "MEAN_MOTION": 15.08866886,
    "ECCENTRICITY": 0.0001253,
    "INCLINATION": 53.2163,
    "RA_OF_ASC_NODE": 265.8878,
    "ARG_OF_PERICENTER": 77.9582,
    "MEAN_ANOMALY": 282.1551,
    "EPHEMERIS_TYPE": 0,
    "CLASSIFICATION_TYPE": "U",
    "NORAD_CAT_ID": 53001,
    "ELEMENT_SET_NO": 999,
    "REV_AT_EPOCH": 18496,
    "BSTAR": 0.0013791,
    "MEAN_MOTION_DOT": 0.00021745,
    "MEAN_MOTION_DDOT": 0.0,
    "TLE_LINE1": "1 53001U 22076R   25315.23375195  .00021745  00000+0  13791-2 0  9998",
    "TLE_LINE2": "2 53001  53.2163 265.8878 0001253  77.9582 282.1551 15.08866886184962",
    "COMMENT": "Grouped by shell and plane from TLE"
  },
  {
    "OBJECT_NAME": "STARLINK-4121",
    "OBJECT_ID": "22076S",
    "EPOCH": "2025-11-11T05:57:46.064448",
    "MEAN_MOTION": 15.08850173,
    "ECCENTRICITY": 0.0001361,
    "INCLINATION": 53.2182,
    "RA_OF_ASC_NODE": 265.8214,
    "ARG_OF_PERICENTER": 94.5182,
    "MEAN_ANOMALY": 265.5965,
    "EPHEMERIS_TYPE": 0,
    "CLASSIFICATION_TYPE": "U",
    "NORAD_CAT_ID": 53002,
    "ELEMENT_SET_NO": 999,
    "REV_AT_EPOCH": 18496,
    "BSTAR": 0.0,
    "MEAN_MOTION_DOT": -7.15e-06,
    "MEAN_MOTION_DDOT": 0.0,
    "TLE_LINE1": "1 53002U 22076S   25315.24844982 -.00000715  00000+0 -26837-4 0  9998",
    "TLE_LINE2": "2 53002  53.2182 265.8214 0001361  94.5182 265.5965 15.08850173184965",
    "COMMENT": "Grouped by shell and plane from TLE"
  },
  {
    "OBJECT_NAME": "STARLINK-4255",
    "OBJECT_ID": "22076T",
    "EPOCH": "2025-11-11T03:50:35.465280",
    "MEAN_MOTION": 15.08844389,
    "ECCENTRICITY": 0.0001416,
    "INCLINATION": 53.2167,
    "RA_OF_ASC_NODE": 266.2176,
    "ARG_OF_PERICENTER": 91.8639,
    "MEAN_ANOMALY": 268.2515,
    "EPHEMERIS_TYPE": 0,
    "CLASSIFICATION_TYPE": "U",
    "NORAD_CAT_ID": 53003,
    "ELEMENT_SET_NO": 999,
    "REV_AT_EPOCH": 18495,
    "BSTAR": 0.00016152,
    "MEAN_MOTION_DOT": 2.284e-05,
    "MEAN_MOTION_DDOT": 0.0,
    "TLE_LINE1": "1 53003U 22076T   25315.16013270  .00002284  00000+0  16152-3 0  9997",
    "TLE_LINE2": "2 53003  53.2167 266.2176 0001416  91.8639 268.2515 15.08844389184951",
    "COMMENT": "Grouped by shell and plane from TLE"
  },
  {
    "OBJECT_NAME": "STARLINK-4253",
    "OBJECT_ID": "22076U",
    "EPOCH": "2025-11-11T05:47:10.972608",
    "MEAN_MOTION": 15.08852396,
    "ECCENTRICITY": 0.0001327,
    "INCLINATION": 53.2176,
    "RA_OF_ASC_NODE": 265.8534,
    "ARG_OF_PERICENTER": 82.6181,
    "MEAN_ANOMALY": 277.4962,
    "EPHEMERIS_TYPE": 0,
    "CLASSIFICATION_TYPE": "U",
    "NORAD_CAT_ID": 53004,
    "ELEMENT_SET_NO": 999,
    "REV_AT_EPOCH": 18496,
    "BSTAR": 0.00018238,
    "MEAN_MOTION_DOT": 2.617e-05,
    "MEAN_MOTION_DDOT": 0.0,
    "TLE_LINE1": "1 53004U 22076U   25315.24109922  .00002617  00000+0  18238-3 0  9994",
    "TLE_LINE2": "2 53004  53.2176 265.8534 0001327  82.6181 277.4962 15.08852396184962",
    "COMMENT": "Grouped by shell and plane from TLE"
  },
  {
    "OBJECT_NAME": "STARLINK-4288",
    "OBJECT_ID": "22076V",
    "EPOCH": "2025-11-11T06:56:03.890688",
    "MEAN_MOTION": 15.08832026,
    "ECCENTRICITY": 0.0001301,
    "INCLINATION": 53.2164,
    "RA_OF_ASC_NODE": 265.6415,
    "ARG_OF_PERICENTER": 86.6559,
    "MEAN_ANOMALY": 273.4582,
    "EPHEMERIS_TYPE": 0,
    "CLASSIFICATION_TYPE": "U",
    "NORAD_CAT_ID": 53005,
    "ELEMENT_SET_NO": 999,
    "REV_AT_EPOCH": 18497,
    "BSTAR": 0.0,
    "MEAN_MOTION_DOT": -1.718e-05,
    "MEAN_MOTION_DDOT": 0.0,
    "TLE_LINE1": "1 53005U 22076V   25315.28893392 -.00001718  00000+0 -89887-4 0  9992",
    "TLE_LINE2": "2 53005  53.2164 265.6415 0001301  86.6559 273.4582 15.08832026184974",
    "COMMENT": "Grouped by shell and plane from TLE"
  },
  {
    "OBJECT_NAME": "STARLINK-4290",
    "OBJECT_ID": "22076W",
    "EPOCH": "2025-11-11T07:06:39.990816",
    "MEAN_MOTION": 15.08843533,
    "ECCENTRICITY": 0.0001614,
    "INCLINATION": 53.2181,
    "RA_OF_ASC_NODE": 265.6075,
    "ARG_OF_PERICENTER": 96.7167,
    "MEAN_ANOMALY": 263.4009,
    "EPHEMERIS_TYPE": 0,
    "CLASSIFICATION_TYPE": "U",
    "NORAD_CAT_ID": 53006,
    "ELEMENT_SET_NO": 999,
    "REV_AT_EPOCH": 18497,
    "BSTAR": 0.00010201000000000001,
    "MEAN_MOTION_DOT": 1.336e-05,
    "MEAN_MOTION_DDOT": 0.0,
    "TLE_LINE1": "1 53006U 22076W   25315.29629619  .00001336  00000+0  10201-3 0  9990",
    "TLE_LINE2": "2 53006  53.2181 265.6075 0001614  96.7167 263.4009 15.08843533184978",
    "COMMENT": "Grouped by shell and plane from TLE"
  },
  {
    "OBJECT_NAME": "STARLINK-4215",
    "OBJECT_ID": "22076X",
    "EPOCH": "2025-11-11T06:45:28.132704",
    "MEAN_MOTION": 15.08848055,
    "ECCENTRICITY": 0.0001467,
    "INCLINATION": 53.2173,
    "RA_OF_ASC_NODE": 265.6742,
    "ARG_OF_PERICENTER": 91.5415,
    "MEAN_ANOMALY": 268.5745,
    "EPHEMERIS_TYPE": 0,
    "CLASSIFICATION_TYPE": "U",
    "NORAD_CAT_ID": 53007,
    "ELEMENT_SET_NO": 999,
    "REV_AT_EPOCH": 18497,
    "BSTAR": 0.00028013,
    "MEAN_MOTION_DOT": 4.174e-05,
    "MEAN_MOTION_DDOT": 0.0,
    "TLE_LINE1": "1 53007U 22076X   25315.28157561  .00004174  00000+0  28013-3 0  9995",
    "TLE_LINE2": "2 53007  53.2173 265.6742 0001467  91.5415 268.5745 15.08848055184973",
    "COMMENT": "Grouped by shell and plane from TLE"
  },
  {
    "OBJECT_NAME": "STARLINK-4275",
    "OBJECT_ID": "22076Y",
    "EPOCH": "2025-11-11T06:50:48.089184",
    "MEAN_MOTION": 15.08848818,
    "ECCENTRICITY": 0.0001652,
    "INCLINATION": 53.217,
    "RA_OF_ASC_NODE": 265.6488,
    "ARG_OF_PERICENTER": 121.5392,
    "MEAN_ANOMALY": 238.5761,
    "EPHEMERIS_TYPE": 0,
    "CLASSIFICATION_TYPE": "U",
    "NORAD_CAT_ID": 53008,
    "ELEMENT_SET_NO": 999,
    "REV_AT_EPOCH": 18497,
    "BSTAR": 0.0023625,
    "MEAN_MOTION_DOT": 0.00037521,
    "MEAN_MOTION_DDOT": 0.0,
    "TLE_LINE1": "1 53008U 22076Y   25315.28527881  .00037521  00000+0  23625-2 0  9997",
    "TLE_LINE2": "2 53008  53.2170 265.6488 0001652 121.5392 238.5761 15.08848818184974",
    "COMMENT": "Grouped by shell and plane from TLE"
  },
  {
    "OBJECT_NAME": "STARLINK-4263",
    "OBJECT_ID": "22076AA",
    "EPOCH": "2025-11-11T04:38:14.544096",
    "MEAN_MOTION": 15.08846368,
    "ECCENTRICITY": 0.0001368,
    "INCLINATION": 53.2175,
    "RA_OF_ASC_NODE": 265.8015,
    "ARG_OF_PERICENTER": 88.0273,
    "MEAN_ANOMALY": 272.0876,
    "EPHEMERIS_TYPE": 0,
    "CLASSIFICATION_TYPE": "U",
    "NORAD_CAT_ID": 53010,
    "ELEMENT_SET_NO": 999,
    "REV_AT_EPOCH": 18496,
    "BSTAR": 8.2314e-05,
    "MEAN_MOTION_DOT": 1.023e-05,
    "MEAN_MOTION_DDOT": 0.0,
    "TLE_LINE1": "1 53010U 22076AA  25315.19322389  .00001023  00000+0  82314-4 0  9996",
    "TLE_LINE2": "2 53010  53.2175 265.8015 0001368  88.0273 272.0876 15.08846368184966",
    "COMMENT": "Grouped by shell and plane from TLE"
  },
  {
    "OBJECT_NAME": "STARLINK-4271",
    "OBJECT_ID": "22076AC",
    "EPOCH": "2025-11-11T06:40:09.909408",
    "MEAN_MOTION": 15.0886143,
    "ECCENTRICITY": 0.000135,
    "INCLINATION": 53.216,
    "RA_OF_ASC_NODE": 265.6908,
    "ARG_OF_PERICENTER": 90.9308,
    "MEAN_ANOMALY": 269.1839,
    "EPHEMERIS_TYPE": 0,
    "CLASSIFICATION_TYPE": "U",
    "NORAD_CAT_ID": 53012,
    "ELEMENT_SET_NO": 999,
    "REV_AT_EPOCH": 18497,
    "BSTAR": 0.00051898,
    "MEAN_MOTION_DOT": 7.986e-05,
    "MEAN_MOTION_DDOT": 0.0,
    "TLE_LINE1": "1 53012U 22076AC  25315.27789247  .00007986  00000+0  51898-3 0  9993",
    "TLE_LINE2": "2 53012  53.2160 265.6908 0001350  90.9308 269.1839 15.08861430184977",
    "COMMENT": "Grouped by shell and plane from TLE"
  }
]